{
  "type": "FeatureCollection",
  "features": [
    {
      "type": "Feature",
      "properties": {
        "norad_id": 41434,
        "name": "BEIDOU-2 IGSO-6 (C13)",
        "group": "beidou",
        "lat": 50.558810339597564,
        "lon": 175.41520810157724,
        "alt_km": 35886.8336462716,
        "timestamp": "2025-12-02T23:34:15.781556+00:00",
        "meta_object_name": "BEIDOU-2 IGSO-6 (C13)",
        "meta_object_id": "2016-021A",
        "meta_epoch": "2025-12-01T15:57:35.287200",
        "meta_mean_motion": 1.00256562,
        "meta_eccentricity": 0.0059132,
        "meta_inclination": 59.9483,
        "meta_ra_of_asc_node": 40.0119,
        "meta_arg_of_pericenter": 231.2834,
        "meta_mean_anomaly": 130.8807,
        "meta_ephemeris_type": 0,
        "meta_classification_type": "U",
        "meta_norad_cat_id": 41434,
        "meta_element_set_no": 999,
        "meta_rev_at_epoch": 3550,
        "meta_bstar": 0,
        "meta_mean_motion_dot": -1.55e-06,
        "meta_mean_motion_ddot": 0,
        "tle_line1": "1 41434U 16021A   25335.66499175 -.00000155  00000+0  00000+0 0  9991",
        "tle_line2": "2 41434  59.9483  40.0119 0059132 231.2834 130.8807  1.00256562 35501"
      },
      "geometry": {
        "type": "Point",
        "coordinates": [
          175.41520810157724,
          50.558810339597564
        ]
      }
    },
    {
      "type": "Feature",
      "properties": {
        "norad_id": 41586,
        "name": "BEIDOU-2 G7 (C03)",
        "group": "beidou",
        "lat": 1.6258535166608243,
        "lon": 176.16388752774554,
        "alt_km": 35790.09145987432,
        "timestamp": "2025-12-02T23:34:15.781568+00:00",
        "meta_object_name": "BEIDOU-2 G7 (C03)",
        "meta_object_id": "2016-037A",
        "meta_epoch": "2025-12-02T07:27:38.871648",
        "meta_mean_motion": 1.00272255,
        "meta_eccentricity": 0.0004462,
        "meta_inclination": 1.7294,
        "meta_ra_of_asc_node": 67.6752,
        "meta_arg_of_pericenter": 5.5089,
        "meta_mean_anomaly": 220.6295,
        "meta_ephemeris_type": 0,
        "meta_classification_type": "U",
        "meta_norad_cat_id": 41586,
        "meta_element_set_no": 999,
        "meta_rev_at_epoch": 491,
        "meta_bstar": 0,
        "meta_mean_motion_dot": -3.33e-06,
        "meta_mean_motion_ddot": 0,
        "tle_line1": "1 41586U 16037A   25336.31086657 -.00000333  00000+0  00000+0 0  9994",
        "tle_line2": "2 41586   1.7294  67.6752 0004462   5.5089 220.6295  1.00272255  4919"
      },
      "geometry": {
        "type": "Point",
        "coordinates": [
          176.16388752774554,
          1.6258535166608243
        ]
      }
    },
    {
      "type": "Feature",
      "properties": {
        "norad_id": 43001,
        "name": "BEIDOU-3 M1 (C19)",
        "group": "beidou",
        "lat": -52.11802653978858,
        "lon": -52.28889200986108,
        "alt_km": 21518.951336094036,
        "timestamp": "2025-12-02T23:34:15.781580+00:00",
        "meta_object_name": "BEIDOU-3 M1 (C19)",
        "meta_object_id": "2017-069A",
        "meta_epoch": "2025-12-02T01:41:27.564288",
        "meta_mean_motion": 1.86230781,
        "meta_eccentricity": 0.00087764,
        "meta_inclination": 56.5176,
        "meta_ra_of_asc_node": 69.587,
        "meta_arg_of_pericenter": 303.6575,
        "meta_mean_anomaly": 56.2612,
        "meta_ephemeris_type": 0,
        "meta_classification_type": "U",
        "meta_norad_cat_id": 43001,
        "meta_element_set_no": 999,
        "meta_rev_at_epoch": 5492,
        "meta_bstar": 0,
        "meta_mean_motion_dot": -4.4e-07,
        "meta_mean_motion_ddot": 0,
        "tle_line1": "1 43001U 17069A   25336.07045792 -.00000044  00000+0  00000+0 0  9991",
        "tle_line2": "2 43001  56.5176  69.5870 0008776 303.6575  56.2612  1.86230781 54920"
      },
      "geometry": {
        "type": "Point",
        "coordinates": [
          -52.28889200986108,
          -52.11802653978858
        ]
      }
    },
    {
      "type": "Feature",
      "properties": {
        "norad_id": 43002,
        "name": "BEIDOU-3 M2 (C20)",
        "group": "beidou",
        "lat": -50.42500563537587,
        "lon": 16.502385765404686,
        "alt_km": 21520.514573553774,
        "timestamp": "2025-12-02T23:34:15.781592+00:00",
        "meta_object_name": "BEIDOU-3 M2 (C20)",
        "meta_object_id": "2017-069B",
        "meta_epoch": "2025-12-01T11:19:28.056000",
        "meta_mean_motion": 1.86230616,
        "meta_eccentricity": 0.00061649,
        "meta_inclination": 56.5166,
        "meta_ra_of_asc_node": 69.6425,
        "meta_arg_of_pericenter": 332.397,
        "meta_mean_anomaly": 27.5733,
        "meta_ephemeris_type": 0,
        "meta_classification_type": "U",
        "meta_norad_cat_id": 43002,
        "meta_element_set_no": 999,
        "meta_rev_at_epoch": 5491,
        "meta_bstar": 0,
        "meta_mean_motion_dot": -4.1e-07,
        "meta_mean_motion_ddot": 0,
        "tle_line1": "1 43002U 17069B   25335.47185250 -.00000041  00000+0  00000+0 0  9996",
        "tle_line2": "2 43002  56.5166  69.6425 0006164 332.3970  27.5733  1.86230616 54915"
      },
      "geometry": {
        "type": "Point",
        "coordinates": [
          16.502385765404686,
          -50.42500563537587
        ]
      }
    },
    {
      "type": "Feature",
      "properties": {
        "norad_id": 43107,
        "name": "BEIDOU-3 M7 (C27)",
        "group": "beidou",
        "lat": 51.90607626563878,
        "lon": 63.62833584951285,
        "alt_km": 21515.803304358178,
        "timestamp": "2025-12-02T23:34:15.781603+00:00",
        "meta_object_name": "BEIDOU-3 M7 (C27)",
        "meta_object_id": "2018-003A",
        "meta_epoch": "2025-12-02T06:56:05.635968",
        "meta_mean_motion": 1.86232265,
        "meta_eccentricity": 0.0002591,
        "meta_inclination": 54.5061,
        "meta_ra_of_asc_node": 309.1785,
        "meta_arg_of_pericenter": 70.8685,
        "meta_mean_anomaly": 289.1495,
        "meta_ephemeris_type": 0,
        "meta_classification_type": "U",
        "meta_norad_cat_id": 43107,
        "meta_element_set_no": 999,
        "meta_rev_at_epoch": 5368,
        "meta_bstar": 0,
        "meta_mean_motion_dot": -6.3e-07,
        "meta_mean_motion_ddot": 0,
        "tle_line1": "1 43107U 18003A   25336.28895412 -.00000063  00000+0  00000+0 0  9993",
        "tle_line2": "2 43107  54.5061 309.1785 0002591  70.8685 289.1495  1.86232265 53687"
      },
      "geometry": {
        "type": "Point",
        "coordinates": [
          63.62833584951285,
          51.90607626563878
        ]
      }
    },
    {
      "type": "Feature",
      "properties": {
        "norad_id": 43108,
        "name": "BEIDOU-3 M8 (C28)",
        "group": "beidou",
        "lat": 30.310468320760876,
        "lon": 104.46307329174509,
        "alt_km": 21533.382110641945,
        "timestamp": "2025-12-02T23:34:15.781614+00:00",
        "meta_object_name": "BEIDOU-3 M8 (C28)",
        "meta_object_id": "2018-003B",
        "meta_epoch": "2025-12-01T03:50:13.118784",
        "meta_mean_motion": 1.86230755,
        "meta_eccentricity": 0.0004823,
        "meta_inclination": 54.4999,
        "meta_ra_of_asc_node": 309.2007,
        "meta_arg_of_pericenter": 273.5581,
        "meta_mean_anomaly": 86.3811,
        "meta_ephemeris_type": 0,
        "meta_classification_type": "U",
        "meta_norad_cat_id": 43108,
        "meta_element_set_no": 999,
        "meta_rev_at_epoch": 5367,
        "meta_bstar": 0,
        "meta_mean_motion_dot": -5.7e-07,
        "meta_mean_motion_ddot": 0,
        "tle_line1": "1 43108U 18003B   25335.15987406 -.00000057  00000+0  00000+0 0  9997",
        "tle_line2": "2 43108  54.4999 309.2007 0004823 273.5581  86.3811  1.86230755 53672"
      },
      "geometry": {
        "type": "Point",
        "coordinates": [
          104.46307329174509,
          30.310468320760876
        ]
      }
    },
    {
      "type": "Feature",
      "properties": {
        "norad_id": 43207,
        "name": "BEIDOU-3 M4 (C22)",
        "group": "beidou",
        "lat": -21.057622095241094,
        "lon": -95.60839646255715,
        "alt_km": 21542.18585891861,
        "timestamp": "2025-12-02T23:34:15.781625+00:00",
        "meta_object_name": "BEIDOU-3 M4 (C22)",
        "meta_object_id": "2018-018A",
        "meta_epoch": "2025-12-02T03:19:43.852800",
        "meta_mean_motion": 1.86230706,
        "meta_eccentricity": 0.00040749,
        "meta_inclination": 56.4768,
        "meta_ra_of_asc_node": 69.6557,
        "meta_arg_of_pericenter": 15.1369,
        "meta_mean_anomaly": 344.8773,
        "meta_ephemeris_type": 0,
        "meta_classification_type": "U",
        "meta_norad_cat_id": 43207,
        "meta_element_set_no": 999,
        "meta_rev_at_epoch": 5307,
        "meta_bstar": 0,
        "meta_mean_motion_dot": -4.5e-07,
        "meta_mean_motion_ddot": 0,
        "tle_line1": "1 43207U 18018A   25336.13870200 -.00000045  00000+0  00000+0 0  9992",
        "tle_line2": "2 43207  56.4768  69.6557 0004074  15.1369 344.8773  1.86230706 53076"
      },
      "geometry": {
        "type": "Point",
        "coordinates": [
          -95.60839646255715,
          -21.057622095241094
        ]
      }
    }
  ]
}